{
    "links": {
        "self": "http://www.neowsapp.com/rest/v1/neo/3873159?api_key=iIulBulltgU6a56xZRHN4H3l9WmuAYTsLGpBGhQ2"
    },
    "id": "3873159",
    "neo_reference_id": "3873159",
    "name": "(2019 TD)",
    "designation": "2019 TD",
    "nasa_jpl_url": "http://ssd.jpl.nasa.gov/sbdb.cgi?sstr=3873159",
    "absolute_magnitude_h": 29.2,
    "estimated_diameter": {
        "kilometers": {
            "estimated_diameter_min": 0.0038419789,
            "estimated_diameter_max": 0.008590926
        },
        "meters": {
            "estimated_diameter_min": 3.8419789106,
            "estimated_diameter_max": 8.5909260123
        },
        "miles": {
            "estimated_diameter_min": 0.0023872943,
            "estimated_diameter_max": 0.0053381523
        },
        "feet": {
            "estimated_diameter_min": 12.6049180892,
            "estimated_diameter_max": 28.1854536983
        }
    },
    "is_potentially_hazardous_asteroid": false,
    "close_approach_data": [
        {
            "close_approach_date": "2019-09-29",
            "close_approach_date_full": "2019-Sep-29 10:07",
            "epoch_date_close_approach": 1569751620000,
            "relative_velocity": {
                "kilometers_per_second": "10.5010781469",
                "kilometers_per_hour": "37803.8813289955",
                "miles_per_hour": "23489.8617068972"
            },
            "miss_distance": {
                "astronomical": "0.0008356016",
                "lunar": "0.3250490224",
                "kilometers": "125004.219528592",
                "miles": "77674.0202228896"
            },
            "orbiting_body": "Moon"
        },
        {
            "close_approach_date": "2019-09-29",
            "close_approach_date_full": "2019-Sep-29 18:49",
            "epoch_date_close_approach": 1569782940000,
            "relative_velocity": {
                "kilometers_per_second": "10.0995617758",
                "kilometers_per_hour": "36358.4223927493",
                "miles_per_hour": "22591.7097362058"
            },
            "miss_distance": {
                "astronomical": "0.0008694691",
                "lunar": "0.3382234799",
                "kilometers": "130070.725390817",
                "miles": "80822.2009825946"
            },
            "orbiting_body": "Earth"
        }
    ],
    "orbital_data": {
        "orbit_id": "4",
        "orbit_determination_date": "2019-10-07 05:57:53",
        "first_observation_date": "2019-10-01",
        "last_observation_date": "2019-10-07",
        "data_arc_in_days": 6,
        "observations_used": 26,
        "orbit_uncertainty": "7",
        "minimum_orbit_intersection": ".000609801",
        "jupiter_tisserand_invariant": "3.806",
        "epoch_osculation": "2459000.5",
        "eccentricity": ".5011782225902646",
        "semi_major_axis": "1.880286322174501",
        "inclination": "3.242836326842935",
        "ascending_node_longitude": "186.6125420718336",
        "orbital_period": "941.7473507482192",
        "perihelion_distance": ".9379277652662992",
        "perihelion_argument": "143.5655572855473",
        "aphelion_distance": "2.822644879082703",
        "perihelion_time": "2458728.038582701398",
        "mean_anomaly": "104.1533168631345",
        "mean_motion": ".3822681313772527",
        "equinox": "J2000",
        "orbit_class": {
            "orbit_class_type": "APO",
            "orbit_class_description": "Near-Earth asteroid orbits which cross the Earth’s orbit similar to that of 1862 Apollo",
            "orbit_class_range": "a (semi-major axis) > 1.0 AU; q (perihelion) < 1.017 AU"
        }
    },
    "is_sentry_object": false
}